SL-14 R/B               
1 20262U 89080C   25267.28527694  .00000349  00000+0  10264-3 0  9993
2 20262  82.5879 280.0358 1230089 205.0794 148.5383 12.50347725639353
DELTA 1 R/B             
1 20323U 89089B   25267.24081080  .00000641  00000+0  16833-3 0  9993
2 20323  97.0869 136.0382 0067703 289.0722  70.3152 14.50470554871602
ARIANE 40 R/B           
1 20443U 90005H   25267.16548922  .00000577  00000+0  19796-3 0  9999
2 20443  98.3358 327.5470 0009785 352.8005   7.3042 14.39704318868841
DELTA 2 R/B(1)          
1 20453U 90008B   25267.03315003  .00045436  00000+0  88782-3 0  9995
2 20453  35.6073 172.5175 0124068 174.3570 185.8587 15.38379806900322
COSMOS 2058             
1 20465U 90010A   25267.10628722  .00008010  00000+0  49698-3 0  9994
2 20465  82.4764 211.2920 0009399 176.6714 183.4580 15.09551771917095
SL-14 R/B               
1 20466U 90010B   25267.15020421  .00000981  00000+0  11648-3 0  9995
2 20466  82.5003  63.7724 0021046 126.3184 233.9978 14.83347011903796
SL-14 R/B               
1 20511U 90018B   25266.87283122  .00000888  00000+0  10914-3 0  9992
2 20511  82.5246  18.9977 0015034 282.0902  77.8628 14.81929199897875
HST                     
1 20580U 90037B   25267.20263805  .00010942  00000+0  39935-3 0  9999
2 20580  28.4657  93.2358 0002770  77.0094 283.0810 15.26459178747820
SL-16 R/B               
1 20625U 90046B   25267.14557093 -.00000003  00000+0  23310-4 0  9996
2 20625  70.9983 287.6765 0015051 207.0217 153.0123 14.14982879824838
COSMOS 2084             
1 20663U 90055A   25267.14949457  .00005183  00000+0  37705-3 0  9992
2 20663  62.7914 183.0308 0045262 165.1613 195.0827 15.04234257911256
SL-6 R/B(2)             
1 20666U 90055D   25266.98443680  .00004238  00000+0  33199-3 0  9996
2 20666  62.7829 100.2878 0012737 233.7441 126.2481 15.02455313913136
SL-8 R/B                
1 20775U 90078B   25266.75091773  .00038332  00000+0  12415-2 0  9998
2 20775  82.9088  40.6288 0390437 212.6275 145.0275 14.81244892784519
SL-8 R/B                
1 21088U 91006B   25267.21542656  .00000014  00000+0 -19286-5 0  9994
2 21088  82.9390 293.8885 0023431 139.0442 294.4897 13.77470598741153
OKEAN-3                 
1 21397U 91039A   25266.89661703  .00004986  00000+0  36463-3 0  9996
2 21397  82.5167 138.2854 0014596 171.4798 188.6678 15.03331073839961
COSMOS 2151             
1 21422U 91042A   25267.27847937  .00004483  00000+0  36579-3 0  9997
2 21422  82.4947 244.0413 0010630 260.8116  99.1905 14.99194350838253
SL-14 R/B               
1 21423U 91042B   25266.68874380  .00000820  00000+0  10104-3 0  9991
2 21423  82.4966  16.7759 0018464  71.6958 288.6263 14.81628359828340
ERS-1                   
1 21574U 91050A   25267.00070919  .00000679  00000+0  23249-3 0  9996
2 21574  98.7944 276.0375 0031635 338.7165  21.2704 14.39268610791758
ARIANE 40 R/B           
1 21610U 91050F   25267.17047863  .00000627  00000+0  20109-3 0  9992
2 21610  98.2288 320.4233 0002649 196.4693 163.6412 14.42709392794986
INTERCOSMOS 25          
1 21819U 91086A   25267.11866003  .00004617  00000+0  90338-3 0  9995
2 21819  82.6042  50.6665 1489421 115.8937 260.3128 12.11380568476516
SL-8 R/B                
1 21876U 92008B   25267.34333707  .00000075  00000+0  62141-4 0  9994
2 21876  82.9294  31.4815 0033652 238.1055 180.6850 13.75939424686549
SL-8 R/B                
1 21938U 92020B   25267.03573341 -.00000038  00000+0 -54903-4 0  9991
2 21938  82.9256 277.5219 0030021  45.0719 333.1112 13.75518158678225
USA 81                  
1 21949U 92023A   25267.18313188  .00000380  00000+0  13373-3 0  9996
2 21949  85.0074 227.4447 0001719 111.6523 248.4853 14.32277975 70950
COSMOS 2219             
1 22219U 92076A   25266.57655442 -.00000095  00000+0 -25066-4 0  9997
2 22219  71.0640   7.4020 0015423  95.4391 264.8491 14.14049067694756
SL-16 R/B               
1 22220U 92076B   25267.15786194  .00000188  00000+0  11746-3 0  9993
2 22220  71.0012 179.1627 0013551 339.2884 123.2442 14.16822442698247
COSMOS 2221             
1 22236U 92080A   25267.19708912  .00003706  00000+0  33403-3 0  9994
2 22236  82.5012  78.4183 0015407  36.6633 323.5639 14.95237027755907
SL-16 R/B               
1 22285U 92093B   25267.23862573 -.00000166  00000+0 -60581-4 0  9998
2 22285  71.0245 353.6838 0005602 225.5424 134.5241 14.15410844689604
COSMOS 2228             
1 22286U 92094A   25267.32027838  .00005406  00000+0  47632-3 0  9998
2 22286  82.5203  36.4768 0019235 139.3788 220.8874 14.96147219751171
SL-16 R/B               
1 22566U 93016B   25267.26245977 -.00000115  00000+0 -34745-4 0  9999
2 22566  71.0080 204.7191 0011910 226.7942 133.2187 14.15270405678620
COSMOS 2242             
1 22626U 93024A   25267.16672485  .00004391  00000+0  39263-3 0  9999
2 22626  82.5171  65.8543 0017484 141.6860 218.5608 14.95554800755496
SL-16 R/B               
1 22803U 93059B   25267.32673805 -.00000059  00000+0 -53277-5 0  9991
2 22803  70.9931   1.9449 0014830 105.7057 254.5704 14.17191607655969
ARIANE 40 R/B           
1 22830U 93061H   25267.14561809  .00000455  00000+0  18293-3 0  9999
2 22830  98.5173 334.0864 0011621  60.9944 299.2403 14.32716367670250
COSMOS 2278             
1 23087U 94023A   25266.96946538  .00000479  00000+0  27507-3 0  9992
2 23087  71.0539 163.8962 0010771 280.6017  79.3892 14.14320573621234
SL-16 R/B               
1 23088U 94023B   25266.88044916  .00000064  00000+0  57847-4 0  9994
2 23088  71.0002  61.1907 0004293 223.5970 136.4814 14.14983686622493
SL-16 R/B               
1 23343U 94074B   25266.87532941  .00000895  00000+0  12735-3 0  9991
2 23343  97.7315 299.3048 0007728  52.7116 120.1494 14.79147729662589
SL-16 R/B               
1 23405U 94077B   25267.28044803 -.00000203  00000+0 -79552-4 0  9990
2 23405  70.9853 342.5768 0001479 349.7825  10.3267 14.15531691592687
ARIANE 40+ R/B          
1 23561U 95021B   25267.15582753  .00000589  00000+0  20260-3 0  9996
2 23561  98.4745 335.6707 0005624 282.3581 131.0323 14.39600056595289
SL-16 R/B               
1 23705U 95058B   25267.13785894  .00000217  00000+0  13558-3 0  9995
2 23705  71.0216 169.9225 0012257   3.4800 356.6406 14.15460972544284
SL-16 R/B               
1 24298U 96051B   25267.16770776 -.00000046  00000+0  15824-5 0  9994
2 24298  70.7620 167.7001 0014571  10.0093 350.1314 14.12393487498136
ORBVIEW 2 (SEASTAR)     
1 24883U 97037A   25267.16926482  .00000611  00000+0  22940-3 0  9998
2 24883  98.8403  62.2717 0002298 165.6614 194.4636 14.35320771484589
SL-16 R/B               
1 25400U 98043G   25266.73973964  .00000142  00000+0  78153-4 0  9998
2 25400  98.7968 214.1719 0010544 134.2857 225.9189 14.25993801415197
SL-16 R/B               
1 25407U 98045B   25267.15979988 -.00000131  00000+0 -41811-4 0  9997
2 25407  71.0117 171.7756 0009855 277.4911  82.5092 14.16154449403528
ISS (ZARYA)             
1 25544U 98067A   25266.24686783  .00027783  00000+0  48333-3 0  9995
2 25544  51.6338 181.0318 0004269   9.4814 350.6255 15.50560509530377
CZ-4B R/B               
1 25732U 99025C   25267.02750554  .00000147  00000+0  91908-4 0  9996
2 25732  98.6897 310.0353 0038183 103.8841 317.4236 14.18213481364542
OKEAN-O                 
1 25860U 99039A   25267.14984598  .00001321  00000+0  18170-3 0  9997
2 25860  97.9725 323.4950 0001681 109.6703 250.4691 14.79953697409752
SL-16 R/B               
1 25861U 99039B   25267.15479265  .00001147  00000+0  15326-3 0  9995
2 25861  98.0250 321.2522 0016201  78.9455 281.3578 14.81409737412200
DELTA 2 R/B             
1 25876U 99041E   25267.18399262  .00001369  00000+0  25882-3 0  9999
2 25876  51.7631 245.9150 0505169 217.1718 139.3223 14.11137785339514
HELIOS 1B               
1 25977U 99064A   25267.26835959  .00003154  00000+0  36054-3 0  9990
2 25977  98.1788 159.5967 0000580 125.9405 234.1864 14.86789767660524
TERRA                   
1 25994U 99068A   25267.22002720  .00000912  00000+0  19580-3 0  9995
2 25994  97.9874 321.7693 0002371  25.5395  66.9594 14.60810201370774
SL-16 R/B               
1 26070U 00006B   25266.84952242 -.00000037  00000+0  52114-5 0  9996
2 26070  71.0003  88.6342 0014394  73.1826 287.0875 14.15786457324944
TITAN 4B R/B            
1 26474U 00047B   25267.23435652  .00005737  00000+0  37277-3 0  9996
2 26474  67.9896 147.9929 0046934 231.9907 127.7000 15.07833029367807
ENVISAT                 
1 27386U 02009A   25267.30834265  .00000273  00000+0  10251-3 0  9993
2 27386  98.3447 220.1229 0001211  90.1342  71.3953 14.38952336235243
IDEFIX & ARIANE 42P R/B 
1 27422U 02021B   25267.28740352  .00000602  00000+0  24581-3 0  9995
2 27422  98.5652 203.0669 0011244 322.8583  37.1821 14.30857577220220
AQUA                    
1 27424U 02022A   25267.28947726  .00002240  00000+0  46143-3 0  9990
2 27424  98.3894 226.9504 0002079  84.6712  21.3445 14.61505833244427
CZ-4B R/B               
1 27432U 02024C   25267.13102740  .00000116  00000+0  82437-4 0  9991
2 27432  98.9128 316.1272 0050916 135.1764 243.0720 14.14503738205693
MIDORI II (ADEOS-II)    
1 27597U 02056A   25267.11323473  .00000576  00000+0  24509-3 0  9999
2 27597  98.7483 219.7134 0001981 101.7190 258.4214 14.29117337186500
H-2A R/B                
1 27601U 02056E   25267.34604443  .00000680  00000+0  25393-3 0  9997
2 27601  98.2918 229.3209 0069338 298.0002 227.2756 14.33585653190275
CZ-4B R/B               
1 28059U 03049C   25267.22849480  .00000993  00000+0  23976-3 0  9999
2 28059  98.6710 250.8162 0048856  21.0497 339.2695 14.54778717162394
CZ-2C R/B               
1 28222U 04012C   25266.85739185  .00046107  00000+0  85190-3 0  9993
2 28222  97.7549 313.2579 0020886 195.6002 164.4607 15.48696281178336
SL-16 R/B               
1 28353U 04021B   25267.28070783  .00000255  00000+0  15734-3 0  9999
2 28353  70.9991 221.7051 0007131 284.9930  75.0403 14.14561223 99302
